CURTIS                  
1 59507U 98067WG  24121.49173539  .00048329  00000+0  73335-3 0  9996
2 59507  51.6349 191.6124 0001444  90.3825 269.7331 15.54110003  3048
KASHIWA                 
1 59508U 98067WH  24121.48774741  .00072376  00000+0  10541-2 0  9996
2 59508  51.6348 191.5864 0002575  76.9962 283.1316 15.55059147  3041
1998-067WJ              
1 59559U 98067WJ  24121.43907249  .00047367  00000+0  74075-3 0  9993
2 59559  51.6362 192.0124 0004537  47.2490 312.8882 15.53279152  1904
1998-067WK              
1 59560U 98067WK  24121.43497992  .00079711  00000+0  11873-2 0  9998
2 59560  51.6358 191.9853 0006742  57.0280 303.1358 15.54383226  1836
1998-067WL              
1 59561U 98067WL  24121.44454389  .00026870  00000+0  44252-3 0  9999
2 59561  51.6367 192.0483 0002656  76.8269 283.3017 15.52125911  1872
1998-067WM              
1 59562U 98067WM  24121.44035890  .00052875  00000+0  82853-3 0  9995
2 59562  51.6361 192.0205 0002569  95.0644 265.0640 15.53183248  1880
1998-067WN              
1 59563U 98067WN  24121.44193011  .00046983  00000+0  74618-3 0  9999
2 59563  51.6365 192.0318 0003054 104.0039 256.1291 15.52860388  1888
SHENZHOU-18 (SZ-18)     
1 59591U 24078A   24120.16613569  .00037603  00000+0  40960-3 0  9996
2 59591  41.4691  22.5544 0003809 269.3856  90.6547 15.62659229171420
CZ-2F R/B               
1 59592U 24078B   24119.16638338  .01137775  76046-5  71178-3 0  9992
2 59592  41.4690  27.6703 0092699 145.6515   4.5704 16.07508991   425
CZ-2F DEB               
1 59593U 24078C   24117.16437429  .06643541  69424-5  71055-2 0  9992
2 59593  41.6118  40.5394 0251395 137.5527 224.6445 15.69435837   103
1998-067WP              
1 59596U 98067WP  24121.50176400  .00056586  00000+0  86971-3 0  9990
2 59596  51.6364 191.6810 0004779  45.7914 314.3468 15.53680053  1921
1998-067WQ              
1 59597U 98067WQ  24121.50169967  .00057807  00000+0  88733-3 0  9996
2 59597  51.6368 191.6809 0004807  45.9342 314.2043 15.53706562  1891
